{
    "week": 293,
    "satellites": [
        {
            "Name": "GSAT0101 (GALILEO-PFM)",
            "Line1": "1 37846U 11060A   24322.82190396 -.00000092  00000+0  00000+0 0  9997",
            "Line2": "2 37846  57.1208 357.3790 0002009 303.7192  56.3175  1.70475692 81291",
            "SatelliteNumber": "37846",
            "Classification": "U",
            "LaunchYear": "11",
            "LaunchNumber": "060",
            "PieceOfLaunch": "A",
            "EpochYear": "24",
            "EpochDay": 322.82190396,
            "FirstDerivativeMeanMotion": -9.2e-07,
            "SecondDerivativeMeanMotion": "00000+0",
            "BSTAR": "00000+0",
            "SetNumber": "999",
            "Inclination": 57.1208,
            "RAAN": 357.379,
            "Eccentricity": 0.0002009,
            "ArgumentOfPerigee": 303.7192,
            "MeanAnomaly": 56.3175,
            "MeanMotion": 1.70475692,
            "RevolutionNumber": "8129"
        },
        {
            "Name": "GSAT0102 (GALILEO-FM2)",
            "Line1": "1 37847U 11060B   24323.33036969 -.00000093  00000+0  00000+0 0  9991",
            "Line2": "2 37847  57.1216 357.3654 0004027 299.7155  57.7796  1.70475203 81309",
            "SatelliteNumber": "37847",
            "Classification": "U",
            "LaunchYear": "11",
            "LaunchNumber": "060",
            "PieceOfLaunch": "B",
            "EpochYear": "24",
            "EpochDay": 323.33036969,
            "FirstDerivativeMeanMotion": -9.3e-07,
            "SecondDerivativeMeanMotion": "00000+0",
            "BSTAR": "00000+0",
            "SetNumber": "999",
            "Inclination": 57.1216,
            "RAAN": 357.3654,
            "Eccentricity": 0.0004027,
            "ArgumentOfPerigee": 299.7155,
            "MeanAnomaly": 57.7796,
            "MeanMotion": 1.70475203,
            "RevolutionNumber": "8130"
        },
        {
            "Name": "GSAT0103 (GALILEO-FM3)",
            "Line1": "1 38857U 12055A   24321.10151763  .00000043  00000+0  00000+0 0  9995",
            "Line2": "2 38857  55.4781 117.4288 0002195 248.2730 111.6845  1.70473442 75153",
            "SatelliteNumber": "38857",
            "Classification": "U",
            "LaunchYear": "12",
            "LaunchNumber": "055",
            "PieceOfLaunch": "A",
            "EpochYear": "24",
            "EpochDay": 321.10151763,
            "FirstDerivativeMeanMotion": 4.3e-07,
            "SecondDerivativeMeanMotion": "00000+0",
            "BSTAR": "00000+0",
            "SetNumber": "999",
            "Inclination": 55.4781,
            "RAAN": 117.4288,
            "Eccentricity": 0.0002195,
            "ArgumentOfPerigee": 248.273,
            "MeanAnomaly": 111.6845,
            "MeanMotion": 1.70473442,
            "RevolutionNumber": "7515"
        },
        {
            "Name": "GSAT0201 (GALILEO 5)",
            "Line1": "1 40128U 14050A   24317.84894513 -.00000064  00000+0  00000+0 0  9993",
            "Line2": "2 40128  49.5062 297.0773 1615021 157.0418 211.0891  1.85519421 67539",
            "SatelliteNumber": "40128",
            "Classification": "U",
            "LaunchYear": "14",
            "LaunchNumber": "050",
            "PieceOfLaunch": "A",
            "EpochYear": "24",
            "EpochDay": 317.84894513,
            "FirstDerivativeMeanMotion": -6.4e-07,
            "SecondDerivativeMeanMotion": "00000+0",
            "BSTAR": "00000+0",
            "SetNumber": "999",
            "Inclination": 49.5062,
            "RAAN": 297.0773,
            "Eccentricity": 0.1615021,
            "ArgumentOfPerigee": 157.0418,
            "MeanAnomaly": 211.0891,
            "MeanMotion": 1.85519421,
            "RevolutionNumber": "6753"
        },
        {
            "Name": "GSAT0202 (GALILEO 6)",
            "Line1": "1 40129U 14050B   24319.72364869 -.00000074  00000+0  00000+0 0  9990",
            "Line2": "2 40129  49.5202 296.0806 1614398 157.9045 209.9391  1.85520091 69733",
            "SatelliteNumber": "40129",
            "Classification": "U",
            "LaunchYear": "14",
            "LaunchNumber": "050",
            "PieceOfLaunch": "B",
            "EpochYear": "24",
            "EpochDay": 319.72364869,
            "FirstDerivativeMeanMotion": -7.4e-07,
            "SecondDerivativeMeanMotion": "00000+0",
            "BSTAR": "00000+0",
            "SetNumber": "999",
            "Inclination": 49.5202,
            "RAAN": 296.0806,
            "Eccentricity": 0.1614398,
            "ArgumentOfPerigee": 157.9045,
            "MeanAnomaly": 209.9391,
            "MeanMotion": 1.85520091,
            "RevolutionNumber": "6973"
        },
        {
            "Name": "GSAT0203 (GALILEO 7)",
            "Line1": "1 40544U 15017A   24322.01417229 -.00000090  00000+0  00000+0 0  9998",
            "Line2": "2 40544  56.9156 357.3141 0005938 258.4457 101.5454  1.70475957 59363",
            "SatelliteNumber": "40544",
            "Classification": "U",
            "LaunchYear": "15",
            "LaunchNumber": "017",
            "PieceOfLaunch": "A",
            "EpochYear": "24",
            "EpochDay": 322.01417229,
            "FirstDerivativeMeanMotion": -9e-07,
            "SecondDerivativeMeanMotion": "00000+0",
            "BSTAR": "00000+0",
            "SetNumber": "999",
            "Inclination": 56.9156,
            "RAAN": 357.3141,
            "Eccentricity": 0.0005938,
            "ArgumentOfPerigee": 258.4457,
            "MeanAnomaly": 101.5454,
            "MeanMotion": 1.70475957,
            "RevolutionNumber": "5936"
        },
        {
            "Name": "GSAT0204 (GALILEO 8)",
            "Line1": "1 40545U 15017B   24321.68221697 -.00000089  00000+0  00000+0 0  9991",
            "Line2": "2 40545  56.9220 357.3393 0005767 249.1376 110.8595  1.70475337 22408",
            "SatelliteNumber": "40545",
            "Classification": "U",
            "LaunchYear": "15",
            "LaunchNumber": "017",
            "PieceOfLaunch": "B",
            "EpochYear": "24",
            "EpochDay": 321.68221697,
            "FirstDerivativeMeanMotion": -8.9e-07,
            "SecondDerivativeMeanMotion": "00000+0",
            "BSTAR": "00000+0",
            "SetNumber": "999",
            "Inclination": 56.922,
            "RAAN": 357.3393,
            "Eccentricity": 0.0005767,
            "ArgumentOfPerigee": 249.1376,
            "MeanAnomaly": 110.8595,
            "MeanMotion": 1.70475337,
            "RevolutionNumber": "2240"
        },
        {
            "Name": "GSAT0205 (GALILEO 9)",
            "Line1": "1 40889U 15045A   24321.45059396 -.00000004  00000+0  00000+0 0  9990",
            "Line2": "2 40889  55.1520 237.5651 0004912  25.5321 334.5273  1.70472870 57164",
            "SatelliteNumber": "40889",
            "Classification": "U",
            "LaunchYear": "15",
            "LaunchNumber": "045",
            "PieceOfLaunch": "A",
            "EpochYear": "24",
            "EpochDay": 321.45059396,
            "FirstDerivativeMeanMotion": -4e-08,
            "SecondDerivativeMeanMotion": "00000+0",
            "BSTAR": "00000+0",
            "SetNumber": "999",
            "Inclination": 55.152,
            "RAAN": 237.5651,
            "Eccentricity": 0.0004912,
            "ArgumentOfPerigee": 25.5321,
            "MeanAnomaly": 334.5273,
            "MeanMotion": 1.7047287,
            "RevolutionNumber": "5716"
        },
        {
            "Name": "GSAT0206 (GALILEO 10)",
            "Line1": "1 40890U 15045B   24322.84442737 -.00000006  00000+0  00000+0 0  9993",
            "Line2": "2 40890  55.1507 237.5219 0003217  19.0948 340.9603  1.70472872 57217",
            "SatelliteNumber": "40890",
            "Classification": "U",
            "LaunchYear": "15",
            "LaunchNumber": "045",
            "PieceOfLaunch": "B",
            "EpochYear": "24",
            "EpochDay": 322.84442737,
            "FirstDerivativeMeanMotion": -6e-08,
            "SecondDerivativeMeanMotion": "00000+0",
            "BSTAR": "00000+0",
            "SetNumber": "999",
            "Inclination": 55.1507,
            "RAAN": 237.5219,
            "Eccentricity": 0.0003217,
            "ArgumentOfPerigee": 19.0948,
            "MeanAnomaly": 340.9603,
            "MeanMotion": 1.70472872,
            "RevolutionNumber": "5721"
        },
        {
            "Name": "GSAT0209 (GALILEO 12)",
            "Line1": "1 41174U 15079A   24323.01371595  .00000034  00000+0  00000+0 0  9999",
            "Line2": "2 41174  55.5029 117.0869 0001901 352.9188   7.0505  1.70474365 54951",
            "SatelliteNumber": "41174",
            "Classification": "U",
            "LaunchYear": "15",
            "LaunchNumber": "079",
            "PieceOfLaunch": "A",
            "EpochYear": "24",
            "EpochDay": 323.01371595,
            "FirstDerivativeMeanMotion": 3.4e-07,
            "SecondDerivativeMeanMotion": "00000+0",
            "BSTAR": "00000+0",
            "SetNumber": "999",
            "Inclination": 55.5029,
            "RAAN": 117.0869,
            "Eccentricity": 0.0001901,
            "ArgumentOfPerigee": 352.9188,
            "MeanAnomaly": 7.0505,
            "MeanMotion": 1.70474365,
            "RevolutionNumber": "5495"
        }
    ]
}